{
  "norad_id": 66002,
  "name": "HULIANWANG DIGUI-94",
  "history": [
    {
      "epoch": "2026-03-27T18:42:12.692448",
      "apogee_km": 1149.8767421107877,
      "perigee_km": 1148.6877109697625,
      "latitude_deg": 19.329444343298906,
      "longitude_deg": 39.01410271995701,
      "semi_major_axis_km": 7527.419226540274,
      "eccentricity": 7.898e-05,
      "inclination_deg": 50.0057,
      "raan_deg": 107.5547,
      "arg_perigee_deg": 287.0258,
      "mean_anomaly_deg": 73.0528,
      "mean_motion_rev_day": 13.29332449
    }
  ]
}